KINEIS-1B               
1 60079U 24114A   26192.11021487  .00000429  00000+0  62727-4 0  9990
2 60079  97.9827 216.1814 0003256  47.2443 312.9043 14.80663191110945
KINEIS-1C               
1 60081U 24114C   26192.14385228  .00000398  00000+0  58680-4 0  9990
2 60081  97.9841 216.0693 0002551  99.9389 260.2111 14.80665196110924
KINEIS-1D               
1 60082U 24114D   26192.17226763  .00000331  00000+0  54940-4 0  9994
2 60082  97.9877 212.0458 0002909 104.4152 255.7381 14.76359450110663
KINEIS-1E               
1 60083U 24114E   26192.22931438  .00000525  00000+0  74975-4 0  9998
2 60083  97.8943 215.2676 0004006 117.7582 242.4037 14.80690073110944
KINEIS-1A               
1 60084U 24114F   26192.19514786  .00000455  00000+0  65944-4 0  9996
2 60084  97.8916 215.3291 0005545  72.1094 288.0722 14.80678510110949
KINEIS-3C               
1 61220U 24172A   26189.82018517  .00001184  00000+0  19490-3 0  9994
2 61220  98.0431 279.4900 0002749  92.2536 267.8986 14.72355818 96250
KINEIS-3D               
1 61221U 24172B   26189.81344248  .00001106  00000+0  18256-3 0  9990
2 61221  98.0427 279.4937 0002612  92.0165 268.1342 14.72360142 96538
KINEIS-3E               
1 61222U 24172C   26192.17507867  .00001025  00000+0  16997-3 0  9992
2 61222  98.0428 281.8118 0001827  91.0457 269.0960 14.72332043 96881
KINEIS-3A               
1 61223U 24172D   26192.22653590  .00001017  00000+0  16875-3 0  9990
2 61223  98.0425 281.9610 0002435  50.0486 310.0934 14.72301935 96312
KINEIS-3B               
1 61224U 24172E   26192.20912497  .00001011  00000+0  16794-3 0  9997
2 61224  98.0418 281.9664 0001926  37.5293 322.6048 14.72288102 96881
KINEIS-5C               
1 62081U 24219A   26192.18637630  .00000353  00000+0  63413-4 0  9990
2 62081  97.9062 350.3748 0003825 185.4343 174.6824 14.72311512 87282
KINEIS-5D               
1 62082U 24219B   26192.21337479  .00000514  00000+0  88636-4 0  9996
2 62082  97.9175 350.4623 0004954 179.3783 180.7431 14.72489157 87299
KINEIS-5E               
1 62083U 24219C   26192.16271412  .00000330  00000+0  59942-4 0  9999
2 62083  97.9020 350.4482 0006440 176.6863 183.4388 14.72296247 87290
KINEIS-5A               
1 62084U 24219D   26192.20875197  .00001453  00000+0  23782-3 0  9994
2 62084  97.8962 350.7759 0003460 214.9718 145.1262 14.72237050 87304
KINEIS-5B               
1 62085U 24219E   26192.14302597  .00000587  00000+0  87784-4 0  9997
2 62085  98.0086 355.8412 0002214 153.4209 206.7116 14.78380221 87548
KINEIS-2C               
1 62929U 25028B   26192.15771993  .00000825  00000+0  13502-3 0  9995
2 62929  98.1232 246.5769 0003924 170.2398 189.8886 14.73421853 76146
