{"fetched_at":"2026-07-11T09:24:26.975Z","source":"https://celestrak.org/NORAD/elements/gp.php?NAME=KINEIS&FORMAT=JSON","constellation":"kineis","records":[{"OBJECT_NAME":"KINEIS-1B","OBJECT_ID":"2024-114A","EPOCH":"2026-07-11T02:38:42.564768","CLASSIFICATION_TYPE":"U","MEAN_MOTION":14.80663191,"ECCENTRICITY":0.0003256,"INCLINATION":97.9827,"RA_OF_ASC_NODE":216.1814,"ARG_OF_PERICENTER":47.2443,"MEAN_ANOMALY":312.9043,"EPHEMERIS_TYPE":0,"NORAD_CAT_ID":60079,"ELEMENT_SET_NO":999,"REV_AT_EPOCH":11094,"BSTAR":0.000062727,"MEAN_MOTION_DOT":0.00000429,"MEAN_MOTION_DDOT":0},{"OBJECT_NAME":"KINEIS-1C","OBJECT_ID":"2024-114C","EPOCH":"2026-07-11T03:27:08.836992","CLASSIFICATION_TYPE":"U","MEAN_MOTION":14.80665196,"ECCENTRICITY":0.0002551,"INCLINATION":97.9841,"RA_OF_ASC_NODE":216.0693,"ARG_OF_PERICENTER":99.9389,"MEAN_ANOMALY":260.2111,"EPHEMERIS_TYPE":0,"NORAD_CAT_ID":60081,"ELEMENT_SET_NO":999,"REV_AT_EPOCH":11092,"BSTAR":0.00005868,"MEAN_MOTION_DOT":0.00000398,"MEAN_MOTION_DDOT":0},{"OBJECT_NAME":"KINEIS-1D","OBJECT_ID":"2024-114D","EPOCH":"2026-07-11T04:08:03.923232","CLASSIFICATION_TYPE":"U","MEAN_MOTION":14.7635945,"ECCENTRICITY":0.0002909,"INCLINATION":97.9877,"RA_OF_ASC_NODE":212.0458,"ARG_OF_PERICENTER":104.4152,"MEAN_ANOMALY":255.7381,"EPHEMERIS_TYPE":0,"NORAD_CAT_ID":60082,"ELEMENT_SET_NO":999,"REV_AT_EPOCH":11066,"BSTAR":0.00005494,"MEAN_MOTION_DOT":0.00000331,"MEAN_MOTION_DDOT":0},{"OBJECT_NAME":"KINEIS-1E","OBJECT_ID":"2024-114E","EPOCH":"2026-07-11T05:30:12.762432","CLASSIFICATION_TYPE":"U","MEAN_MOTION":14.80690073,"ECCENTRICITY":0.0004006,"INCLINATION":97.8943,"RA_OF_ASC_NODE":215.2676,"ARG_OF_PERICENTER":117.7582,"MEAN_ANOMALY":242.4037,"EPHEMERIS_TYPE":0,"NORAD_CAT_ID":60083,"ELEMENT_SET_NO":999,"REV_AT_EPOCH":11094,"BSTAR":0.000074975,"MEAN_MOTION_DOT":0.00000525,"MEAN_MOTION_DDOT":0},{"OBJECT_NAME":"KINEIS-1A","OBJECT_ID":"2024-114F","EPOCH":"2026-07-11T04:41:00.775104","CLASSIFICATION_TYPE":"U","MEAN_MOTION":14.8067851,"ECCENTRICITY":0.0005545,"INCLINATION":97.8916,"RA_OF_ASC_NODE":215.3291,"ARG_OF_PERICENTER":72.1094,"MEAN_ANOMALY":288.0722,"EPHEMERIS_TYPE":0,"NORAD_CAT_ID":60084,"ELEMENT_SET_NO":999,"REV_AT_EPOCH":11094,"BSTAR":0.000065944,"MEAN_MOTION_DOT":0.00000455,"MEAN_MOTION_DDOT":0},{"OBJECT_NAME":"KINEIS-3C","OBJECT_ID":"2024-172A","EPOCH":"2026-07-08T19:41:03.998688","CLASSIFICATION_TYPE":"U","MEAN_MOTION":14.72355818,"ECCENTRICITY":0.00027496,"INCLINATION":98.0431,"RA_OF_ASC_NODE":279.49,"ARG_OF_PERICENTER":92.2536,"MEAN_ANOMALY":267.8986,"EPHEMERIS_TYPE":0,"NORAD_CAT_ID":61220,"ELEMENT_SET_NO":999,"REV_AT_EPOCH":9625,"BSTAR":0.00019489517,"MEAN_MOTION_DOT":0.00001184,"MEAN_MOTION_DDOT":0},{"OBJECT_NAME":"KINEIS-3D","OBJECT_ID":"2024-172B","EPOCH":"2026-07-08T19:31:21.430272","CLASSIFICATION_TYPE":"U","MEAN_MOTION":14.72360142,"ECCENTRICITY":0.00026129,"INCLINATION":98.0427,"RA_OF_ASC_NODE":279.4937,"ARG_OF_PERICENTER":92.0165,"MEAN_ANOMALY":268.1342,"EPHEMERIS_TYPE":0,"NORAD_CAT_ID":61221,"ELEMENT_SET_NO":999,"REV_AT_EPOCH":9653,"BSTAR":0.0001825622,"MEAN_MOTION_DOT":0.00001106,"MEAN_MOTION_DDOT":0},{"OBJECT_NAME":"KINEIS-3E","OBJECT_ID":"2024-172C","EPOCH":"2026-07-11T04:12:06.797088","CLASSIFICATION_TYPE":"U","MEAN_MOTION":14.72332043,"ECCENTRICITY":0.0001827,"INCLINATION":98.0428,"RA_OF_ASC_NODE":281.8118,"ARG_OF_PERICENTER":91.0457,"MEAN_ANOMALY":269.096,"EPHEMERIS_TYPE":0,"NORAD_CAT_ID":61222,"ELEMENT_SET_NO":999,"REV_AT_EPOCH":9688,"BSTAR":0.00016997,"MEAN_MOTION_DOT":0.00001025,"MEAN_MOTION_DDOT":0},{"OBJECT_NAME":"KINEIS-3A","OBJECT_ID":"2024-172D","EPOCH":"2026-07-11T05:26:12.701760","CLASSIFICATION_TYPE":"U","MEAN_MOTION":14.72301935,"ECCENTRICITY":0.0002435,"INCLINATION":98.0425,"RA_OF_ASC_NODE":281.961,"ARG_OF_PERICENTER":50.0486,"MEAN_ANOMALY":310.0934,"EPHEMERIS_TYPE":0,"NORAD_CAT_ID":61223,"ELEMENT_SET_NO":999,"REV_AT_EPOCH":9631,"BSTAR":0.00016875,"MEAN_MOTION_DOT":0.00001017,"MEAN_MOTION_DDOT":0},{"OBJECT_NAME":"KINEIS-3B","OBJECT_ID":"2024-172E","EPOCH":"2026-07-11T05:01:08.397408","CLASSIFICATION_TYPE":"U","MEAN_MOTION":14.72288102,"ECCENTRICITY":0.0001926,"INCLINATION":98.0418,"RA_OF_ASC_NODE":281.9664,"ARG_OF_PERICENTER":37.5293,"MEAN_ANOMALY":322.6048,"EPHEMERIS_TYPE":0,"NORAD_CAT_ID":61224,"ELEMENT_SET_NO":999,"REV_AT_EPOCH":9688,"BSTAR":0.00016794,"MEAN_MOTION_DOT":0.00001011,"MEAN_MOTION_DDOT":0},{"OBJECT_NAME":"KINEIS-5C","OBJECT_ID":"2024-219A","EPOCH":"2026-07-11T04:28:22.912320","CLASSIFICATION_TYPE":"U","MEAN_MOTION":14.72311512,"ECCENTRICITY":0.0003825,"INCLINATION":97.9062,"RA_OF_ASC_NODE":350.3748,"ARG_OF_PERICENTER":185.4343,"MEAN_ANOMALY":174.6824,"EPHEMERIS_TYPE":0,"NORAD_CAT_ID":62081,"ELEMENT_SET_NO":999,"REV_AT_EPOCH":8728,"BSTAR":0.000063413,"MEAN_MOTION_DOT":0.00000353,"MEAN_MOTION_DDOT":0},{"OBJECT_NAME":"KINEIS-5D","OBJECT_ID":"2024-219B","EPOCH":"2026-07-11T05:07:15.581856","CLASSIFICATION_TYPE":"U","MEAN_MOTION":14.72489157,"ECCENTRICITY":0.0004954,"INCLINATION":97.9175,"RA_OF_ASC_NODE":350.4623,"ARG_OF_PERICENTER":179.3783,"MEAN_ANOMALY":180.7431,"EPHEMERIS_TYPE":0,"NORAD_CAT_ID":62082,"ELEMENT_SET_NO":999,"REV_AT_EPOCH":8729,"BSTAR":0.000088636,"MEAN_MOTION_DOT":0.00000514,"MEAN_MOTION_DDOT":0},{"OBJECT_NAME":"KINEIS-5E","OBJECT_ID":"2024-219C","EPOCH":"2026-07-11T03:54:18.499968","CLASSIFICATION_TYPE":"U","MEAN_MOTION":14.72296247,"ECCENTRICITY":0.000644,"INCLINATION":97.902,"RA_OF_ASC_NODE":350.4482,"ARG_OF_PERICENTER":176.6863,"MEAN_ANOMALY":183.4388,"EPHEMERIS_TYPE":0,"NORAD_CAT_ID":62083,"ELEMENT_SET_NO":999,"REV_AT_EPOCH":8729,"BSTAR":0.000059942,"MEAN_MOTION_DOT":0.0000033,"MEAN_MOTION_DDOT":0},{"OBJECT_NAME":"KINEIS-5A","OBJECT_ID":"2024-219D","EPOCH":"2026-07-11T05:00:36.170208","CLASSIFICATION_TYPE":"U","MEAN_MOTION":14.7223705,"ECCENTRICITY":0.000346,"INCLINATION":97.8962,"RA_OF_ASC_NODE":350.7759,"ARG_OF_PERICENTER":214.9718,"MEAN_ANOMALY":145.1262,"EPHEMERIS_TYPE":0,"NORAD_CAT_ID":62084,"ELEMENT_SET_NO":999,"REV_AT_EPOCH":8730,"BSTAR":0.00023782,"MEAN_MOTION_DOT":0.00001453,"MEAN_MOTION_DDOT":0},{"OBJECT_NAME":"KINEIS-5B","OBJECT_ID":"2024-219E","EPOCH":"2026-07-11T03:25:57.443808","CLASSIFICATION_TYPE":"U","MEAN_MOTION":14.78380221,"ECCENTRICITY":0.0002214,"INCLINATION":98.0086,"RA_OF_ASC_NODE":355.8412,"ARG_OF_PERICENTER":153.4209,"MEAN_ANOMALY":206.7116,"EPHEMERIS_TYPE":0,"NORAD_CAT_ID":62085,"ELEMENT_SET_NO":999,"REV_AT_EPOCH":8754,"BSTAR":0.000087784,"MEAN_MOTION_DOT":0.00000587,"MEAN_MOTION_DDOT":0},{"OBJECT_NAME":"KINEIS-2C","OBJECT_ID":"2025-028B","EPOCH":"2026-07-11T03:47:07.001952","CLASSIFICATION_TYPE":"U","MEAN_MOTION":14.73421853,"ECCENTRICITY":0.0003924,"INCLINATION":98.1232,"RA_OF_ASC_NODE":246.5769,"ARG_OF_PERICENTER":170.2398,"MEAN_ANOMALY":189.8886,"EPHEMERIS_TYPE":0,"NORAD_CAT_ID":62929,"ELEMENT_SET_NO":999,"REV_AT_EPOCH":7614,"BSTAR":0.00013502,"MEAN_MOTION_DOT":0.00000825,"MEAN_MOTION_DDOT":0}]}
